[{"OBJECT_NAME":"HAWK-9A","OBJECT_ID":"2024-066E","EPOCH":"2026-03-09T10:20:39.002208","MEAN_MOTION":14.98777479,"ECCENTRICITY":0.00036271,"INCLINATION":45.6088,"RA_OF_ASC_NODE":72.7153,"ARG_OF_PERICENTER":244.6286,"MEAN_ANOMALY":115.4219,"EPHEMERIS_TYPE":0,"CLASSIFICATION_TYPE":"U","NORAD_CAT_ID":59446,"ELEMENT_SET_NO":999,"REV_AT_EPOCH":10486,"BSTAR":0.00023458946,"MEAN_MOTION_DOT":2.638e-5,"MEAN_MOTION_DDOT":0},{"OBJECT_NAME":"STARLINK-36166","OBJECT_ID":"2025-298K","EPOCH":"2026-03-09T22:00:01.999584","MEAN_MOTION":14.98341724,"ECCENTRICITY":0.00028696,"INCLINATION":70.001,"RA_OF_ASC_NODE":14.0309,"ARG_OF_PERICENTER":267.1586,"MEAN_ANOMALY":236.0639,"EPHEMERIS_TYPE":0,"CLASSIFICATION_TYPE":"U","NORAD_CAT_ID":67084,"ELEMENT_SET_NO":999,"REV_AT_EPOCH":590,"BSTAR":-0.0015931599,"MEAN_MOTION_DOT":-0.00019056,"MEAN_MOTION_DDOT":0}]
